NORAD_CAT_ID,OBJECT_NAME,OBJECT_TYPE,EPOCH,MEAN_MOTION,ECCENTRICITY,INCLINATION,RA_OF_ASC_NODE,ARG_OF_PERICENTER,MEAN_ANOMALY,BSTAR,MEAN_MOTION_DOT,MEAN_MOTION_DDOT,TLE_LINE0,TLE_LINE1,TLE_LINE2,SEMIMAJOR_AXIS,PERIOD,APOGEE,PERIGEE,DECAYED
47762,STARLINK-2180,PAYLOAD,2022-06-02 12:00:46,15.06398247,0.0001675,53.0559,284.5873,53.7049,306.4094,0.0001035,1.26e-05,0.0,0 STARLINK-2180,1 47762U 21017AS  22153.50054205  .00001260  00000-0  10350-3 0  9992,2 47762  53.0559 284.5873 0001675  53.7049 306.4094 15.06398247 70119,6925.354,95.592,548.379,546.059,0.0
47762,STARLINK-2180,PAYLOAD,2022-06-02 18:22:56,15.06398769,0.0001668,53.0559,283.3961,52.6184,307.4957,7.8457e-05,8.87e-06,0.0,0 STARLINK-2180,1 47762U 21017AS  22153.76592942  .00000887  00000-0  78457-4 0  9992,2 47762  53.0559 283.3961 0001668  52.6184 307.4957 15.06398769 70156,6925.352,95.592,548.372,546.062,0.0
47762,STARLINK-2180,PAYLOAD,2022-06-03 08:42:48,15.06396794,0.0001696,53.0556,280.7153,53.9493,306.1653,-7.8216e-05,-1.446e-05,0.0,0 STARLINK-2180,1 47762U 21017AS  22154.36305737 -.00001446  00000-0 -78216-4 0  9990,2 47762  53.0556 280.7153 0001696  53.9493 306.1653 15.06396794 69596,6925.358,95.592,548.398,546.049,0.0
47762,STARLINK-2180,PAYLOAD,2022-06-03 18:16:02,15.06399564,0.0001708,53.0553,278.928,54.9557,305.1592,-4.7413e-05,-9.88e-06,0.0,0 STARLINK-2180,1 47762U 21017AS  22154.76113508 -.00000988  00000-0 -47413-4 0  9992,2 47762  53.0553 278.9280 0001708  54.9557 305.1592 15.06399564 70309,6925.35,95.592,548.398,546.0319999999998,0.0
47762,STARLINK-2180,PAYLOAD,2022-06-04 11:46:57,15.06398754,0.0001499,53.0552,275.6508,55.7747,304.3384,-3.3379e-07,-2.86e-06,0.0,0 STARLINK-2180,1 47762U 21017AS  22155.49094688 -.00000286  00000-0 -33379-6 0  9999,2 47762  53.0552 275.6508 0001499  55.7747 304.3384 15.06398754 69760,6925.352,95.592,548.255,546.179,0.0
47762,STARLINK-2180,PAYLOAD,2022-06-04 13:22:30,15.06396456,0.0001482,53.0551,275.3534,51.7034,308.4088,-1.717e-05,-5.37e-06,0.0,0 STARLINK-2180,1 47762U 21017AS  22155.55729577 -.00000537  00000-0 -17170-4 0  9996,2 47762  53.0551 275.3534 0001482  51.7034 308.4088 15.06396456 70420,6925.359,95.592,548.251,546.198,0.0
47762,STARLINK-2180,PAYLOAD,2022-06-04 18:09:07,15.06395446,0.0001617,53.0556,274.4607,50.3209,309.7922,-3.1903e-05,-7.57e-06,0.0,0 STARLINK-2180,1 47762U 21017AS  22155.75633832 -.00000757  00000-0 -31903-4 0  9990,2 47762  53.0556 274.4607 0001617  50.3209 309.7922 15.06395446 70457,6925.363,95.592,548.347,546.1080000000002,0.0
47762,STARLINK-2180,PAYLOAD,2022-06-05 16:26:40,15.06402018,0.0001626999999999,53.056,270.291,48.3312,311.7816,5.5671e-05,5.48e-06,0.0,0 STARLINK-2180,1 47762U 21017AS  22156.68518828  .00000548  00000-0  55671-4 0  9994,2 47762  53.0560 270.2910 0001627  48.3312 311.7816 15.06402018 69947,6925.342,95.592,548.3340000000002,546.081,0.0
47762,STARLINK-2180,PAYLOAD,2022-06-06 11:33:09,15.06389939,0.0001720999999999,53.056,266.7174,51.8927,308.2217,2.3381e-05,6.7e-07,0.0,0 STARLINK-2180,1 47762U 21017AS  22157.48135811  .00000067  00000-0  23381-4 0  9999,2 47762  53.0560 266.7174 0001721  51.8927 308.2217 15.06389939 70062,6925.379,95.593,548.436,546.053,0.0
47762,STARLINK-2180,PAYLOAD,2022-06-06 16:19:46,15.06392804,0.0001753,53.0557,265.8239,52.3888,307.726,4.6292e-05,4.08e-06,0.0,0 STARLINK-2180,1 47762U 21017AS  22157.68039659  .00000408  00000-0  46292-4 0  9999,2 47762  53.0557 265.8239 0001753  52.3888 307.7260 15.06392804 70749,6925.371,95.593,548.45,546.0219999999998,0.0
47762,STARLINK-2180,PAYLOAD,2022-06-07 00:17:27,15.063987300000004,0.0001773,53.0562,264.3349,52.6261,307.4889,7.0208e-05,7.64e-06,0.0,0 STARLINK-2180,1 47762U 21017AS  22158.01212654  .00000764  00000-0  70208-4 0  9994,2 47762  53.0562 264.3349 0001773  52.6261 307.4889 15.06398730 70143,6925.352,95.592,548.445,545.99,0.0
47762,STARLINK-2180,PAYLOAD,2022-06-07 13:01:45,15.06409375,0.0001826,53.0572,261.9528,53.9219,306.1939,9.2769e-05,1.101e-05,0.0,0 STARLINK-2180,1 47762U 21017AS  22158.54289184  .00001101  00000-0  92769-4 0  9996,2 47762  53.0572 261.9528 0001826  53.9219 306.1939 15.06409375 70221,6925.32,95.592,548.4490000000002,545.92,0.0
47762,STARLINK-2180,PAYLOAD,2022-06-08 12:54:51,15.06399011,0.0001721999999999,53.0559,257.4847,52.8774,307.2372,7.857199999999999e-05,8.89e-06,0.0,0 STARLINK-2180,1 47762U 21017AS  22159.53809655  .00000889  00000-0  78572-4 0  9995,2 47762  53.0559 257.4847 0001722  52.8774 307.2372 15.06399011 70373,6925.352,95.592,548.409,546.024,0.0
47762,STARLINK-2180,PAYLOAD,2022-06-08 16:05:56,15.06401845,0.0001675,53.0551,256.8882,51.9176,308.1964,5.163e-05,4.88e-06,0.0,0 STARLINK-2180,1 47762U 21017AS  22159.67078863  .00000488  00000-0  51630-4 0  9990,2 47762  53.0551 256.8882 0001675  51.9176 308.1964 15.06401845 71041,6925.343000000003,95.592,548.368,546.048,0.0
47762,STARLINK-2180,PAYLOAD,2022-06-09 06:25:48,15.0638672,0.0001873,53.0537,254.2062,67.5576,292.5611,3.4271e-05,2.29e-06,0.0,0 STARLINK-2180,1 47762U 21017AS  22160.26791987  .00000229  00000-0  34271-4 0  9991,2 47762  53.0537 254.2062 0001873  67.5576 292.5611 15.06386720 71133,6925.389,95.593,548.5509999999998,545.957,0.0
47762,STARLINK-2180,PAYLOAD,2022-06-10 12:41:03,15.06391388,0.0001744,53.0554,248.5495,50.0476,310.0666,-3.2645e-05,-7.68e-06,0.0,0 STARLINK-2180,1 47762U 21017AS  22161.52851656 -.00000768  00000-0 -32645-4 0  9994,2 47762  53.0554 248.5495 0001744  50.0476 310.0666 15.06391388 70671,6925.375,95.593,548.448,546.0319999999998,0.0
47762,STARLINK-2180,PAYLOAD,2022-06-11 12:34:09,15.06393196,0.0001724,53.0552,244.0819,51.9429,308.1716,0.00021433,2.912e-05,0.0,0 STARLINK-2180,1 47762U 21017AS  22162.52371590  .00002912  00000-0  21433-3 0  9992,2 47762  53.0552 244.0819 0001724  51.9429 308.1716 15.06393196 70826,6925.369000000002,95.593,548.428,546.04,0.0
47762,STARLINK-2180,PAYLOAD,2022-06-11 15:45:13,15.06395236,0.0001745,53.0552,243.4862,51.6788,308.4357,0.00021749,2.959e-05,0.0,0 STARLINK-2180,1 47762U 21017AS  22162.65640915  .00002959  00000-0  21749-3 0  9997,2 47762  53.0552 243.4862 0001745  51.6788 308.4357 15.06395236 71490,6925.363,95.592,548.437,546.02,0.0
47762,STARLINK-2180,PAYLOAD,2022-06-12 12:27:15,15.06395959,0.0001754999999999,53.0546,239.6144,53.8073,306.3078,9.2798e-05,1.101e-05,0.0,0 STARLINK-2180,1 47762U 21017AS  22163.51892461  .00001101  00000-0  92798-4 0  9999,2 47762  53.0546 239.6144 0001755  53.8073 306.3078 15.06395959 71629,6925.361,95.592,548.441,546.011,0.0
47762,STARLINK-2180,PAYLOAD,2022-06-13 04:22:37,15.06411941,0.0001748,53.0543,236.6357,53.157,306.9579,0.0001469,1.908e-05,0.0,0 STARLINK-2180,1 47762U 21017AS  22164.18238018  .00001908  00000-0  14690-3 0  9994,2 47762  53.0543 236.6357 0001748  53.1570 306.9579 15.06411941 71077,6925.312,95.591,548.388,545.966,0.0
47762,STARLINK-2180,PAYLOAD,2022-06-13 10:44:47,15.06408189,0.0001699,53.0547,235.4444,52.1053,308.009,6.852300000000001e-05,7.39e-06,0.0,0 STARLINK-2180,1 47762U 21017AS  22164.44777111  .00000739  00000-0  68523-4 0  9991,2 47762  53.0547 235.4444 0001699  52.1053 308.0090 15.06408189 71111,6925.323,95.592,548.365,546.012,0.0
47762,STARLINK-2180,PAYLOAD,2022-06-14 10:37:53,15.06396704,0.0001606,53.0546,230.9761,49.5074,310.6055,5.7812e-05,5.8e-06,0.0,0 STARLINK-2180,1 47762U 21017AS  22165.44297769  .00000580  00000-0  57812-4 0  9991,2 47762  53.0546 230.9761 0001606  49.5074 310.6055 15.06396704 71268,6925.359,95.592,548.336,546.111,0.0
47762,STARLINK-2180,PAYLOAD,2022-06-14 13:48:57,15.063993099999998,0.0001685,53.0545,230.3803,58.8155,301.2999,2.6941e-05,1.2e-06,0.0,0 STARLINK-2180,1 47762U 21017AS  22165.57566960  .00000120  00000-0  26941-4 0  9996,2 47762  53.0545 230.3803 0001685  58.8155 301.2999 15.06399310 71931,6925.351,95.592,548.383,546.049,0.0
47762,STARLINK-2180,PAYLOAD,2022-06-15 02:33:17,15.06368811,0.000124,53.0547,227.9965,51.2761,308.8339,0.00042621,6.067e-05,0.0,0 STARLINK-2180,1 47762U 21017AS  22166.10644933  .00006067  00000-0  42621-3 0  9991,2 47762  53.0547 227.9965 0001240  51.2761 308.8339 15.06368811 71361,6925.444,95.594,548.168,546.45,0.0
47762,STARLINK-2180,PAYLOAD,2022-06-15 10:30:59,15.06385991,0.0001524,53.0548,226.5075,57.2213,302.8923,7.9226e-05,8.98e-06,0.0,0 STARLINK-2180,1 47762U 21017AS  22166.43818460  .00000898  00000-0  79226-4 0  9993,2 47762  53.0548 226.5075 0001524  57.2213 302.8923 15.06385991 71419,6925.391,95.593,548.312,546.201,0.0
47762,STARLINK-2180,PAYLOAD,2022-06-19 11:38:53,15.06394409,0.0001802,53.0545,208.3406,46.9569,313.1571,0.00019607,2.64e-05,0.0,0 STARLINK-2180,1 47762U 21017AS  22170.48534583  .00002640  00000-0  19607-3 0  9997,2 47762  53.0545 208.3406 0001802  46.9569 313.1571 15.06394409 72677,6925.366,95.592,548.479,545.9830000000002,0.0
47762,STARLINK-2180,PAYLOAD,2022-06-19 19:36:35,15.06396485,0.0001844,53.0546,206.8513,45.1839,314.93,0.00015616,2.045e-05,0.0,0 STARLINK-2180,1 47762U 21017AS  22170.81708032  .00002045  00000-0  15616-3 0  9991,2 47762  53.0546 206.8513 0001844  45.1839 314.9300 15.06396485 72728,6925.359,95.592,548.501,545.947,0.0
47762,STARLINK-2180,PAYLOAD,2022-06-20 08:20:55,15.06390931,0.0001874,53.0544,204.4685,48.8265,311.2886,5.519e-05,5.400000000000002e-06,0.0,0 STARLINK-2180,1 47762U 21017AS  22171.34786338  .00000540  00000-0  55190-4 0  9995,2 47762  53.0544 204.4685 0001874  48.8265 311.2886 15.06390931 72152,6925.376,95.593,548.539,545.944,0.0
47762,STARLINK-2180,PAYLOAD,2022-06-20 11:32:00,15.06390848,0.0001833,53.0541,203.8727,47.9306,312.1838,1.2746e-05,-9.2e-07,0.0,0 STARLINK-2180,1 47762U 21017AS  22171.48055857 -.00000092  00000-0  12746-4 0  9998,2 47762  53.0541 203.8727 0001833  47.9306 312.1838 15.06390848 72828,6925.377,95.593,548.511,545.972,0.0
